CCSDS_OMM_VERS = 2.0
CREATION_DATE  = 
ORIGINATOR     = 

OBJECT_NAME    = UNKNOWN
OBJECT_ID      = 
CENTER_NAME    = EARTH
REF_FRAME      = TEME
TIME_SYSTEM    = UTC
MEAN_ELEMENT_THEORY = SGP/SGP4

EPOCH          = 2026-01-21T19:48:46.580832
MEAN_MOTION    = 12.63841472
ECCENTRICITY   = .00900607
INCLINATION    = 82.4327
RA_OF_ASC_NODE = 219.4061
ARG_OF_PERICENTER = 187.1917
MEAN_ANOMALY   = 172.7889

EPHEMERIS_TYPE = 0
CLASSIFICATION_TYPE = U
NORAD_CAT_ID   = 270240
ELEMENT_SET_NO = 999
REV_AT_EPOCH   = 27349
BSTAR          = .33184738E-1
MEAN_MOTION_DOT = .6168E-4
MEAN_MOTION_DDOT = 0

CCSDS_OMM_VERS = 2.0
CREATION_DATE  = 
ORIGINATOR     = 

OBJECT_NAME    = UNKNOWN
OBJECT_ID      = 
CENTER_NAME    = EARTH
REF_FRAME      = TEME
TIME_SYSTEM    = UTC
MEAN_ELEMENT_THEORY = SGP/SGP4

EPOCH          = 2026-01-21T16:19:43.536000
MEAN_MOTION    = 12.94307255
ECCENTRICITY   = .00288423
INCLINATION    = 90.2461
RA_OF_ASC_NODE = 3.0113
ARG_OF_PERICENTER = 277.5720
MEAN_ANOMALY   = 82.2123

EPHEMERIS_TYPE = 0
CLASSIFICATION_TYPE = U
NORAD_CAT_ID   = 270241
ELEMENT_SET_NO = 999
REV_AT_EPOCH   = 28175
BSTAR          = .11463455E-2
MEAN_MOTION_DOT = .326E-5
MEAN_MOTION_DDOT = 0

CCSDS_OMM_VERS = 2.0
CREATION_DATE  = 
ORIGINATOR     = 

OBJECT_NAME    = UNKNOWN
OBJECT_ID      = 
CENTER_NAME    = EARTH
REF_FRAME      = TEME
TIME_SYSTEM    = UTC
MEAN_ELEMENT_THEORY = SGP/SGP4

EPOCH          = 2026-01-16T04:58:56.186400
MEAN_MOTION    = 12.98543506
ECCENTRICITY   = .00456396
INCLINATION    = 90.2381
RA_OF_ASC_NODE = 4.1194
ARG_OF_PERICENTER = 48.5979
MEAN_ANOMALY   = 311.9051

EPHEMERIS_TYPE = 0
CLASSIFICATION_TYPE = U
NORAD_CAT_ID   = 270242
ELEMENT_SET_NO = 999
REV_AT_EPOCH   = 28172
BSTAR          = -.51766197E-3
MEAN_MOTION_DOT = -.145E-5
MEAN_MOTION_DDOT = 0

CCSDS_OMM_VERS = 2.0
CREATION_DATE  = 
ORIGINATOR     = 

OBJECT_NAME    = UNKNOWN
OBJECT_ID      = 
CENTER_NAME    = EARTH
REF_FRAME      = TEME
TIME_SYSTEM    = UTC
MEAN_ELEMENT_THEORY = SGP/SGP4

EPOCH          = 2026-01-15T00:05:20.905152
MEAN_MOTION    = 11.23973987
ECCENTRICITY   = .07973973
INCLINATION    = 102.1052
RA_OF_ASC_NODE = 93.9176
ARG_OF_PERICENTER = 146.4331
MEAN_ANOMALY   = 218.9904

EPHEMERIS_TYPE = 0
CLASSIFICATION_TYPE = U
NORAD_CAT_ID   = 270245
ELEMENT_SET_NO = 999
REV_AT_EPOCH   = 2195
BSTAR          = -.3963085E-1
MEAN_MOTION_DOT = -.2628E-4
MEAN_MOTION_DDOT = 0

CCSDS_OMM_VERS = 2.0
CREATION_DATE  = 
ORIGINATOR     = 

OBJECT_NAME    = UNKNOWN
OBJECT_ID      = 
CENTER_NAME    = EARTH
REF_FRAME      = TEME
TIME_SYSTEM    = UTC
MEAN_ELEMENT_THEORY = SGP/SGP4

EPOCH          = 2026-01-16T11:13:32.094048
MEAN_MOTION    = 10.71390161
ECCENTRICITY   = .09906558
INCLINATION    = 101.9065
RA_OF_ASC_NODE = 291.1040
ARG_OF_PERICENTER = 192.6957
MEAN_ANOMALY   = 164.7269

EPHEMERIS_TYPE = 0
CLASSIFICATION_TYPE = U
NORAD_CAT_ID   = 270246
ELEMENT_SET_NO = 999
REV_AT_EPOCH   = 23348
BSTAR          = -.14653164E-1
MEAN_MOTION_DOT = -.678E-5
MEAN_MOTION_DDOT = 0

CCSDS_OMM_VERS = 2.0
CREATION_DATE  = 
ORIGINATOR     = 

OBJECT_NAME    = UNKNOWN
OBJECT_ID      = 
CENTER_NAME    = EARTH
REF_FRAME      = TEME
TIME_SYSTEM    = UTC
MEAN_ELEMENT_THEORY = SGP/SGP4

EPOCH          = 2026-01-20T08:02:07.052640
MEAN_MOTION    = 12.78817644
ECCENTRICITY   = .00689267
INCLINATION    = 66.0644
RA_OF_ASC_NODE = 248.4010
ARG_OF_PERICENTER = 5.5172
MEAN_ANOMALY   = 354.6586

EPHEMERIS_TYPE = 0
CLASSIFICATION_TYPE = U
NORAD_CAT_ID   = 270247
ELEMENT_SET_NO = 999
REV_AT_EPOCH   = 27698
BSTAR          = .1450125E-2
MEAN_MOTION_DOT = .267E-5
MEAN_MOTION_DDOT = 0

CCSDS_OMM_VERS = 2.0
CREATION_DATE  = 
ORIGINATOR     = 

OBJECT_NAME    = UNKNOWN
OBJECT_ID      = 
CENTER_NAME    = EARTH
REF_FRAME      = TEME
TIME_SYSTEM    = UTC
MEAN_ELEMENT_THEORY = SGP/SGP4

EPOCH          = 2026-01-17T02:39:50.796576
MEAN_MOTION    = 12.25504563
ECCENTRICITY   = .00248833
INCLINATION    = 82.4614
RA_OF_ASC_NODE = 312.4214
ARG_OF_PERICENTER = 353.7451
MEAN_ANOMALY   = 6.3305

EPHEMERIS_TYPE = 0
CLASSIFICATION_TYPE = U
NORAD_CAT_ID   = 270248
ELEMENT_SET_NO = 999
REV_AT_EPOCH   = 26393
BSTAR          = .38295396E-2
MEAN_MOTION_DOT = .434E-5
MEAN_MOTION_DDOT = 0

CCSDS_OMM_VERS = 2.0
CREATION_DATE  = 
ORIGINATOR     = 

OBJECT_NAME    = UNKNOWN
OBJECT_ID      = 
CENTER_NAME    = EARTH
REF_FRAME      = TEME
TIME_SYSTEM    = UTC
MEAN_ELEMENT_THEORY = SGP/SGP4

EPOCH          = 2026-01-10T16:34:33.955392
MEAN_MOTION    = 12.95395839
ECCENTRICITY   = .00272183
INCLINATION    = 90.2380
RA_OF_ASC_NODE = 3.0108
ARG_OF_PERICENTER = 253.0636
MEAN_ANOMALY   = 106.7500

EPHEMERIS_TYPE = 0
CLASSIFICATION_TYPE = U
NORAD_CAT_ID   = 270249
ELEMENT_SET_NO = 999
REV_AT_EPOCH   = 27819
BSTAR          = -.36116704E-3
MEAN_MOTION_DOT = -.95E-6
MEAN_MOTION_DDOT = 0

CCSDS_OMM_VERS = 2.0
CREATION_DATE  = 
ORIGINATOR     = 

OBJECT_NAME    = UNKNOWN
OBJECT_ID      = 
CENTER_NAME    = EARTH
REF_FRAME      = TEME
TIME_SYSTEM    = UTC
MEAN_ELEMENT_THEORY = SGP/SGP4

EPOCH          = 2026-01-10T07:31:55.769088
MEAN_MOTION    = 12.59682885
ECCENTRICITY   = .01830365
INCLINATION    = 82.4539
RA_OF_ASC_NODE = 233.8773
ARG_OF_PERICENTER = 256.4114
MEAN_ANOMALY   = 101.6530

EPHEMERIS_TYPE = 0
CLASSIFICATION_TYPE = U
NORAD_CAT_ID   = 270250
ELEMENT_SET_NO = 999
REV_AT_EPOCH   = 26902
BSTAR          = .11027645E-1
MEAN_MOTION_DOT = .2039E-4
MEAN_MOTION_DDOT = 0

CCSDS_OMM_VERS = 2.0
CREATION_DATE  = 
ORIGINATOR     = 

OBJECT_NAME    = UNKNOWN
OBJECT_ID      = 
CENTER_NAME    = EARTH
REF_FRAME      = TEME
TIME_SYSTEM    = UTC
MEAN_ELEMENT_THEORY = SGP/SGP4

EPOCH          = 2026-01-21T13:06:47.747808
MEAN_MOTION    = 11.48806657
ECCENTRICITY   = .06809083
INCLINATION    = 102.3074
RA_OF_ASC_NODE = 308.4010
ARG_OF_PERICENTER = 98.9475
MEAN_ANOMALY   = 268.9186

EPHEMERIS_TYPE = 0
CLASSIFICATION_TYPE = U
NORAD_CAT_ID   = 270251
ELEMENT_SET_NO = 999
REV_AT_EPOCH   = 24799
BSTAR          = .12715782E+0
MEAN_MOTION_DOT = .9637E-4
MEAN_MOTION_DDOT = 0

CCSDS_OMM_VERS = 2.0
CREATION_DATE  = 
ORIGINATOR     = 

OBJECT_NAME    = UNKNOWN
OBJECT_ID      = 
CENTER_NAME    = EARTH
REF_FRAME      = TEME
TIME_SYSTEM    = UTC
MEAN_ELEMENT_THEORY = SGP/SGP4

EPOCH          = 2026-01-16T03:58:08.014656
MEAN_MOTION    = 12.62397863
ECCENTRICITY   = .00007629
INCLINATION    = 51.9835
RA_OF_ASC_NODE = 338.3888
ARG_OF_PERICENTER = 30.7414
MEAN_ANOMALY   = 329.3497

EPHEMERIS_TYPE = 0
CLASSIFICATION_TYPE = U
NORAD_CAT_ID   = 270252
ELEMENT_SET_NO = 999
REV_AT_EPOCH   = 27334
BSTAR          = -.30356884E-4
MEAN_MOTION_DOT = -.109E-5
MEAN_MOTION_DDOT = 0

CCSDS_OMM_VERS = 2.0
CREATION_DATE  = 
ORIGINATOR     = 

OBJECT_NAME    = UNKNOWN
OBJECT_ID      = 
CENTER_NAME    = EARTH
REF_FRAME      = TEME
TIME_SYSTEM    = UTC
MEAN_ELEMENT_THEORY = SGP/SGP4

EPOCH          = 2026-01-23T15:22:18.659136
MEAN_MOTION    = 13.00255630
ECCENTRICITY   = .00323629
INCLINATION    = 90.2462
RA_OF_ASC_NODE = 3.6047
ARG_OF_PERICENTER = 256.9326
MEAN_ANOMALY   = 102.8183

EPHEMERIS_TYPE = 0
CLASSIFICATION_TYPE = U
NORAD_CAT_ID   = 270253
ELEMENT_SET_NO = 999
REV_AT_EPOCH   = 28066
BSTAR          = .10363532E-2
MEAN_MOTION_DOT = .321E-5
MEAN_MOTION_DDOT = 0

CCSDS_OMM_VERS = 2.0
CREATION_DATE  = 
ORIGINATOR     = 

OBJECT_NAME    = UNKNOWN
OBJECT_ID      = 
CENTER_NAME    = EARTH
REF_FRAME      = TEME
TIME_SYSTEM    = UTC
MEAN_ELEMENT_THEORY = SGP/SGP4

EPOCH          = 2026-01-14T16:08:04.730208
MEAN_MOTION    = 12.93268656
ECCENTRICITY   = .00332681
INCLINATION    = 90.2444
RA_OF_ASC_NODE = 4.1498
ARG_OF_PERICENTER = 317.2127
MEAN_ANOMALY   = 42.6402

EPHEMERIS_TYPE = 0
CLASSIFICATION_TYPE = U
NORAD_CAT_ID   = 270256
ELEMENT_SET_NO = 999
REV_AT_EPOCH   = 27917
BSTAR          = .46922269E-3
MEAN_MOTION_DOT = .136E-5
MEAN_MOTION_DDOT = 0

CCSDS_OMM_VERS = 2.0
CREATION_DATE  = 
ORIGINATOR     = 

OBJECT_NAME    = UNKNOWN
OBJECT_ID      = 
CENTER_NAME    = EARTH
REF_FRAME      = TEME
TIME_SYSTEM    = UTC
MEAN_ELEMENT_THEORY = SGP/SGP4

EPOCH          = 2026-01-23T12:20:23.597664
MEAN_MOTION    = 14.87321697
ECCENTRICITY   = .00629068
INCLINATION    = 86.0753
RA_OF_ASC_NODE = 309.2064
ARG_OF_PERICENTER = 143.8782
MEAN_ANOMALY   = 216.6718

EPHEMERIS_TYPE = 0
CLASSIFICATION_TYPE = U
NORAD_CAT_ID   = 270257
ELEMENT_SET_NO = 999
REV_AT_EPOCH   = 8514
BSTAR          = .17301565E-1
MEAN_MOTION_DOT = .165359E-2
MEAN_MOTION_DDOT = 0

CCSDS_OMM_VERS = 2.0
CREATION_DATE  = 
ORIGINATOR     = 

OBJECT_NAME    = UNKNOWN
OBJECT_ID      = 
CENTER_NAME    = EARTH
REF_FRAME      = TEME
TIME_SYSTEM    = UTC
MEAN_ELEMENT_THEORY = SGP/SGP4

EPOCH          = 2026-01-19T11:39:50.834592
MEAN_MOTION    = 12.33999138
ECCENTRICITY   = .03608269
INCLINATION    = 82.3663
RA_OF_ASC_NODE = 291.7137
ARG_OF_PERICENTER = 296.0178
MEAN_ANOMALY   = 60.4156

EPHEMERIS_TYPE = 0
CLASSIFICATION_TYPE = U
NORAD_CAT_ID   = 270258
ELEMENT_SET_NO = 999
REV_AT_EPOCH   = 26475
BSTAR          = -.20598401E-1
MEAN_MOTION_DOT = -.3162E-4
MEAN_MOTION_DDOT = 0

CCSDS_OMM_VERS = 2.0
CREATION_DATE  = 
ORIGINATOR     = 

OBJECT_NAME    = UNKNOWN
OBJECT_ID      = 
CENTER_NAME    = EARTH
REF_FRAME      = TEME
TIME_SYSTEM    = UTC
MEAN_ELEMENT_THEORY = SGP/SGP4

EPOCH          = 2026-01-22T10:19:19.552224
MEAN_MOTION    = 12.83394284
ECCENTRICITY   = .03803229
INCLINATION    = 63.2087
RA_OF_ASC_NODE = 276.7396
ARG_OF_PERICENTER = 22.4514
MEAN_ANOMALY   = 339.2637

EPHEMERIS_TYPE = 0
CLASSIFICATION_TYPE = U
NORAD_CAT_ID   = 270261
ELEMENT_SET_NO = 999
REV_AT_EPOCH   = 27546
BSTAR          = .20518562E-2
MEAN_MOTION_DOT = .59E-5
MEAN_MOTION_DDOT = 0

